{"type": "FeatureCollection", "features": [ {"type": "Feature", "properties": {"norad_id": 17070, "name": "POLAR BEAR", "group": "nnss", "lat": -58.89117710689029, "lon": -176.60962393752683, "alt_km": 1016.6009576663764, "timestamp": "2025-12-06T11:28:11.331342+00:00", "meta": {"OBJECT_NAME": "POLAR BEAR", "OBJECT_ID": "1986-088A", "EPOCH": "2025-12-05T15:06:25.540992", "MEAN_MOTION": 13.75248618, "ECCENTRICITY": 0.00404842, "INCLINATION": 89.6179, "RA_OF_ASC_NODE": 184.0581, "ARG_OF_PERICENTER": 139.9261, "MEAN_ANOMALY": 283.1057, "EPHEMERIS_TYPE": 0, "CLASSIFICATION_TYPE": "U", "NORAD_CAT_ID": 17070, "ELEMENT_SET_NO": 999, "REV_AT_EPOCH": 95881, "BSTAR": 0.00016715435, "MEAN_MOTION_DOT": 1.73e-06, "MEAN_MOTION_DDOT": 0}, "tle": {"line1": "1 17070U 86088A   25339.62946228  .00000173  00000+0  16715-3 0  9999", "line2": "2 17070  89.6179 184.0581 0040484 139.9261 283.1057 13.75248618958817"}}, "geometry": {"type": "Point", "coordinates": [-176.60962393752683, -58.89117710689029]}}, {"type": "Feature", "properties": {"norad_id": 18361, "name": "OSCAR 27", "group": "nnss", "lat": 19.489350465262124, "lon": -100.82949145542212, "alt_km": 1079.2383633747359, "timestamp": "2025-12-06T11:28:11.331352+00:00", "meta": {"OBJECT_NAME": "OSCAR 27", "OBJECT_ID": "1987-080A", "EPOCH": "2025-12-05T18:35:37.140288", "MEAN_MOTION": 13.44904458, "ECCENTRICITY": 0.01024963, "INCLINATION": 90.3742, "RA_OF_ASC_NODE": 79.0117, "ARG_OF_PERICENTER": 244.0221, "MEAN_ANOMALY": 115.0341, "EPHEMERIS_TYPE": 0, "CLASSIFICATION_TYPE": "U", "NORAD_CAT_ID": 18361, "ELEMENT_SET_NO": 999, "REV_AT_EPOCH": 87463, "BSTAR": 0.00028133, "MEAN_MOTION_DOT": 1.78e-06, "MEAN_MOTION_DDOT": 0}, "tle": {"line1": "1 18361U 87080A   25339.77473542  .00000178  00000+0  28133-3 0  9998", "line2": "2 18361  90.3742  79.0117 0102496 244.0221 115.0341 13.44904458874633"}}, "geometry": {"type": "Point", "coordinates": [-100.82949145542212, 19.489350465262124]}}, {"type": "Feature", "properties": {"norad_id": 18362, "name": "OSCAR 29", "group": "nnss", "lat": -3.0130368639301945, "lon": -100.52343593068667, "alt_km": 1085.211230029532, "timestamp": "2025-12-06T11:28:11.331362+00:00", "meta": {"OBJECT_NAME": "OSCAR 29", "OBJECT_ID": "1987-080B", "EPOCH": "2025-12-05T20:50:57.566976", "MEAN_MOTION": 13.44446435, "ECCENTRICITY": 0.01037235, "INCLINATION": 90.3754, "RA_OF_ASC_NODE": 79.4735, "ARG_OF_PERICENTER": 267.1598, "MEAN_ANOMALY": 210.1892, "EPHEMERIS_TYPE": 0, "CLASSIFICATION_TYPE": "U", "NORAD_CAT_ID": 18362, "ELEMENT_SET_NO": 999, "REV_AT_EPOCH": 87417, "BSTAR": 0.00024259225, "MEAN_MOTION_DOT": 1.53e-06, "MEAN_MOTION_DDOT": 0}, "tle": {"line1": "1 18362U 87080B   25339.86872184  .00000153  00000+0  24259-3 0  9992", "line2": "2 18362  90.3754  79.4735 0103723 267.1598 210.1892 13.44446435874177"}}, "geometry": {"type": "Point", "coordinates": [-100.52343593068667, -3.0130368639301945]}}, {"type": "Feature", "properties": {"norad_id": 19070, "name": "OSCAR 23", "group": "nnss", "lat": -24.142002810450464, "lon": 16.34304901251384, "alt_km": 1266.2247802784013, "timestamp": "2025-12-06T11:28:11.331373+00:00", "meta": {"OBJECT_NAME": "OSCAR 23", "OBJECT_ID": "1988-033A", "EPOCH": "2025-12-05T16:18:45.237600", "MEAN_MOTION": 13.27785497, "ECCENTRICITY": 0.01889371, "INCLINATION": 90.322, "RA_OF_ASC_NODE": 16.1737, "ARG_OF_PERICENTER": 199.5773, "MEAN_ANOMALY": 281.6539, "EPHEMERIS_TYPE": 0, "CLASSIFICATION_TYPE": "U", "NORAD_CAT_ID": 19070, "ELEMENT_SET_NO": 999, "REV_AT_EPOCH": 82159, "BSTAR": 0.00023902205, "MEAN_MOTION_DOT": 1.27e-06, "MEAN_MOTION_DDOT": 0}, "tle": {"line1": "1 19070U 88033A   25339.67969025  .00000127  00000+0  23902-3 0  9993", "line2": "2 19070  90.3220  16.1737 0188937 199.5773 281.6539 13.27785497821599"}}, "geometry": {"type": "Point", "coordinates": [16.34304901251384, -24.142002810450464]}}, {"type": "Feature", "properties": {"norad_id": 19071, "name": "OSCAR 32", "group": "nnss", "lat": 78.96657266750209, "lon": 14.675491225350992, "alt_km": 1181.894106710748, "timestamp": "2025-12-06T11:28:11.331383+00:00", "meta": {"OBJECT_NAME": "OSCAR 32", "OBJECT_ID": "1988-033B", "EPOCH": "2025-12-05T21:28:09.882912", "MEAN_MOTION": 13.27952736, "ECCENTRICITY": 0.0187778, "INCLINATION": 90.3224, "RA_OF_ASC_NODE": 16.3119, "ARG_OF_PERICENTER": 185.8244, "MEAN_ANOMALY": 348.0929, "EPHEMERIS_TYPE": 0, "CLASSIFICATION_TYPE": "U", "NORAD_CAT_ID": 19071, "ELEMENT_SET_NO": 999, "REV_AT_EPOCH": 82174, "BSTAR": 0.00025968054, "MEAN_MOTION_DOT": 1.38e-06, "MEAN_MOTION_DDOT": 0}, "tle": {"line1": "1 19071U 88033B   25339.89455883  .00000138  00000+0  25968-3 0  9996", "line2": "2 19071  90.3224  16.3119 0187778 185.8244 348.0929 13.27952736821743"}}, "geometry": {"type": "Point", "coordinates": [14.675491225350992, 78.96657266750209]}}, {"type": "Feature", "properties": {"norad_id": 19223, "name": "NOVA 2", "group": "nnss", "lat": 31.153562485128337, "lon": 78.28777247844967, "alt_km": 1148.2933845031102, "timestamp": "2025-12-06T11:28:11.331393+00:00", "meta": {"OBJECT_NAME": "NOVA 2", "OBJECT_ID": "1988-052A", "EPOCH": "2025-12-05T19:33:49.296096", "MEAN_MOTION": 13.2293481, "ECCENTRICITY": 0.00311447, "INCLINATION": 89.9873, "RA_OF_ASC_NODE": 78.2809, "ARG_OF_PERICENTER": 35.5433, "MEAN_ANOMALY": 81.131, "EPHEMERIS_TYPE": 0, "CLASSIFICATION_TYPE": "U", "NORAD_CAT_ID": 19223, "ELEMENT_SET_NO": 999, "REV_AT_EPOCH": 80856, "BSTAR": 0.00025319783, "MEAN_MOTION_DOT": 1.15e-06, "MEAN_MOTION_DDOT": 0}, "tle": {"line1": "1 19223U 88052A   25339.81515389  .00000115  00000+0  25320-3 0  9993", "line2": "2 19223  89.9873  78.2809 0031144  35.5433  81.1310 13.22934810808567"}}, "geometry": {"type": "Point", "coordinates": [78.28777247844967, 31.153562485128337]}}, {"type": "Feature", "properties": {"norad_id": 19419, "name": "OSCAR 25", "group": "nnss", "lat": 25.09203513962793, "lon": 20.206987171759963, "alt_km": 1134.7245748848018, "timestamp": "2025-12-06T11:28:11.331403+00:00", "meta": {"OBJECT_NAME": "OSCAR 25", "OBJECT_ID": "1988-074A", "EPOCH": "2025-12-05T21:54:28.663200", "MEAN_MOTION": 13.42621411, "ECCENTRICITY": 0.00942515, "INCLINATION": 90.0352, "RA_OF_ASC_NODE": 20.2215, "ARG_OF_PERICENTER": 265.6733, "MEAN_ANOMALY": 268.9378, "EPHEMERIS_TYPE": 0, "CLASSIFICATION_TYPE": "U", "NORAD_CAT_ID": 19419, "ELEMENT_SET_NO": 999, "REV_AT_EPOCH": 82548, "BSTAR": 0.00028827776, "MEAN_MOTION_DOT": 1.76e-06, "MEAN_MOTION_DDOT": 0}, "tle": {"line1": "1 19419U 88074A   25339.91283175  .00000176  00000+0  28828-3 0  9993", "line2": "2 19419  90.0352  20.2215 0094251 265.6733 268.9378 13.42621411825485"}}, "geometry": {"type": "Point", "coordinates": [20.206987171759963, 25.09203513962793]}}, {"type": "Feature", "properties": {"norad_id": 19420, "name": "OSCAR 31", "group": "nnss", "lat": -89.10405729135927, "lon": -161.78919146093585, "alt_km": 1039.2045590557864, "timestamp": "2025-12-06T11:28:11.331414+00:00", "meta": {"OBJECT_NAME": "OSCAR 31", "OBJECT_ID": "1988-074B", "EPOCH": "2025-12-05T16:52:33.532896", "MEAN_MOTION": 13.42582937, "ECCENTRICITY": 0.00925026, "INCLINATION": 90.0369, "RA_OF_ASC_NODE": 20.5696, "ARG_OF_PERICENTER": 260.3951, "MEAN_ANOMALY": 226.1548, "EPHEMERIS_TYPE": 0, "CLASSIFICATION_TYPE": "U", "NORAD_CAT_ID": 19420, "ELEMENT_SET_NO": 999, "REV_AT_EPOCH": 82556, "BSTAR": 0.00023755346, "MEAN_MOTION_DOT": 1.46e-06, "MEAN_MOTION_DDOT": 0}, "tle": {"line1": "1 19420U 88074B   25339.70316589  .00000146  00000+0  23755-3 0  9999", "line2": "2 19420  90.0369  20.5696 0092502 260.3951 226.1548 13.42582937825565"}}, "geometry": {"type": "Point", "coordinates": [-161.78919146093585, -89.10405729135927]}}]}